NORAD_CAT_ID,OBJECT_NAME,OBJECT_TYPE,EPOCH,MEAN_MOTION,ECCENTRICITY,INCLINATION,RA_OF_ASC_NODE,ARG_OF_PERICENTER,MEAN_ANOMALY,BSTAR,MEAN_MOTION_DOT,MEAN_MOTION_DDOT,TLE_LINE0,TLE_LINE1,TLE_LINE2,SEMIMAJOR_AXIS,PERIOD,APOGEE,PERIGEE,DECAYED
53142.0,STARLINK-4101,PAYLOAD,2024-06-20 02:16:57,15.08844282,0.0001447,53.2167,111.4718,87.397,272.7188,2.9265e-05,1.78e-06,0.0,0 STARLINK-4101,1 53142U 22083L   24172.09510467  .00000178  00000-0  29265-4 0  9992,2 53142  53.2167 111.4718 0001447  87.3970 272.7188 15.08844282106480,6917.867,95.437,540.733,538.731,0.0
53142.0,STARLINK-4101,PAYLOAD,2024-06-20 22:56:58,15.08839628,0.0001508,53.2167,107.6057,88.4144,271.7021,5.7454e-05,6.27e-06,0.0,0 STARLINK-4101,1 53142U 22083L   24172.95622769  .00000627  00000-0  57454-4 0  9996,2 53142  53.2167 107.6057 0001508  88.4144 271.7021 15.08839628107233,6917.882,95.438,540.79,538.703,0.0
53142.0,STARLINK-4101,PAYLOAD,2024-06-21 05:18:30,15.08844023,0.000154,53.2167,106.4161,88.206,271.9109,9.0231e-05,1.148e-05,0.0,0 STARLINK-4101,1 53142U 22083L   24173.22118399  .00001148  00000-0  90231-4 0  9995,2 53142  53.2167 106.4161 0001540  88.2060 271.9109 15.08844023106656,6917.868,95.437,540.798,538.668,0.0
53142.0,STARLINK-4101,PAYLOAD,2024-06-22 01:58:30,15.08845311,0.0001594,53.2174,102.5488,93.0379,267.0796,7.248e-05,8.66e-06,0.0,0 STARLINK-4101,1 53142U 22083L   24174.08230167  .00000866  00000-0  72480-4 0  9990,2 53142  53.2174 102.5488 0001594  93.0379 267.0796 15.08845311107402,6917.864,95.437,540.832,538.626,0.0
53142.0,STARLINK-4101,PAYLOAD,2024-06-22 05:09:17,15.08846157,0.0001603,53.2175,101.9538,93.7413,266.3762,7.6845e-05,9.35e-06,0.0,0 STARLINK-4101,1 53142U 22083L   24174.21478055  .00000935  00000-0  76845-4 0  9991,2 53142  53.2175 101.9538 0001603  93.7413 266.3762 15.08846157106806,6917.862,95.437,540.836,538.618,0.0
53142.0,STARLINK-4101,PAYLOAD,2024-06-22 22:38:31,15.08840124,0.0001616,53.2169,98.6799,112.3617,247.7547,-5.2564e-06,-3.72e-06,0.0,0 STARLINK-4101,1 53142U 22083L   24174.94342425 -.00000372  00000-0 -52564-5 0  9992,2 53142  53.2169  98.6799 0001616 112.3617 247.7547 15.08840124106912,6917.88,95.438,540.863,538.627,0.0
53142.0,STARLINK-4101,PAYLOAD,2024-06-23 01:49:18,15.08841021,0.0001465,53.2172,98.087,93.1151,267.0009,2.4754e-05,1.06e-06,0.0,0 STARLINK-4101,1 53142U 22083L   24175.07590467  .00000106  00000-0  24754-4 0  9990,2 53142  53.2172  98.0870 0001465  93.1151 267.0009 15.08841021107557,6917.877,95.437,540.756,538.729,0.0
53142.0,STARLINK-4101,PAYLOAD,2024-06-23 05:00:04,15.08839572,0.0001489,53.2173,97.4931,92.9306,267.1856,8.0136e-06,-1.6e-06,0.0,0 STARLINK-4101,1 53142U 22083L   24175.20838609 -.00000160  00000-0  80136-5 0  9996,2 53142  53.2173  97.4931 0001489  92.9306 267.1856 15.08839572106956,6917.882,95.438,540.777,538.717,0.0
53142.0,STARLINK-4101,PAYLOAD,2024-06-23 22:29:19,15.08819278,0.0001565,53.2174,94.2219,125.6103,234.5035,0.00023676,3.48e-05,0.0,0 STARLINK-4101,1 53142U 22083L   24175.93702733  .00003480  00000-0  23676-3 0  9995,2 53142  53.2174  94.2219 0001565 125.6103 234.5035 15.08819278107066,6917.944,95.439,540.891,538.726,0.0
53142.0,STARLINK-4101,PAYLOAD,2024-06-24 00:04:42,15.08842468,0.0001429,53.2175,93.9254,108.8783,251.2364,-6.0511e-05,-1.251e-05,0.0,0 STARLINK-4101,1 53142U 22083L   24176.00326624 -.00001251  00000-0 -60511-4 0  9991,2 53142  53.2175  93.9254 0001429 108.8783 251.2364 15.08842468107077,6917.873,95.437,540.726,538.749,0.0
53142.0,STARLINK-4101,PAYLOAD,2024-06-25 01:30:52,15.0883376,0.000154,53.2165,89.1696,72.4615,287.6546,-9.5915e-05,-1.814e-05,0.0,0 STARLINK-4101,1 53142U 22083L   24177.06311261 -.00001814  00000-0 -95915-4 0  9990,2 53142  53.2165  89.1696 0001540  72.4615 287.6546 15.08833760107853,6917.899,95.438,540.83,538.699,0.0
53142.0,STARLINK-4101,PAYLOAD,2024-06-25 22:10:53,15.08838083,0.0001097,53.2161,85.3024,75.7105,284.4009,1.5697e-05,-3.8e-07,0.0,0 STARLINK-4101,1 53142U 22083L   24177.92422871 -.00000038  00000-0  15697-4 0  9990,2 53142  53.2161  85.3024 0001097  75.7105 284.4009 15.08838083107367,6917.886,95.438,540.51,538.992,0.0
53142.0,STARLINK-4101,PAYLOAD,2024-06-26 01:21:38,15.08854572,0.0001093,53.2163,84.7034,93.6619,266.4498,0.00014599,2.037e-05,0.0,0 STARLINK-4101,1 53142U 22083L   24178.05669412  .00002037  00000-0  14599-3 0  9998,2 53142  53.2163  84.7034 0001093  93.6619 266.4498 15.08854572108003,6917.836,95.437,540.457,538.945,0.0
53142.0,STARLINK-4101,PAYLOAD,2024-06-27 01:12:25,15.08857374,9.96e-05,53.2155,80.2477,84.694,275.4166,4.8767e-05,4.89e-06,0.0,0 STARLINK-4101,1 53142U 22083L   24179.05029724  .00000489  00000-0  48767-4 0  9999,2 53142  53.2155  80.2477 0000996  84.6940 275.4166 15.08857374108155,6917.827,95.436,540.381,539.003,0.0
53142.0,STARLINK-4101,PAYLOAD,2024-06-27 10:44:45,15.08843292,9.5e-05,53.2154,78.4641,104.9349,255.1749,-6.9678e-05,-1.397e-05,0.0,0 STARLINK-4101,1 53142U 22083L   24179.44774683 -.00001397  00000-0 -69678-4 0  9998,2 53142  53.2154  78.4641 0000950 104.9349 255.1749 15.08843292108218,6917.87,95.437,540.393,539.078,0.0
53142.0,STARLINK-4101,PAYLOAD,2024-06-27 21:52:27,15.08837227,8.32e-05,53.2164,76.3797,83.9275,276.1812,7.1809e-06,-1.73e-06,0.0,0 STARLINK-4101,1 53142U 22083L   24179.91143188 -.00000173  00000-0  71809-5 0  9990,2 53142  53.2164  76.3797 0000832  83.9275 276.1812 15.08837227107664,6917.889,95.438,540.329,539.178,0.0
53142.0,STARLINK-4101,PAYLOAD,2024-06-28 10:35:32,15.08847278,0.000142,53.2152,74.0053,67.356,292.7582,0.00012565,1.713e-05,0.0,0 STARLINK-4101,1 53142U 22083L   24180.44134365  .00001713  00000-0  12565-3 0  9999,2 53142  53.2152  74.0053 0001420  67.3560 292.7582 15.08847278107742,6917.858,95.437,540.705,538.741,0.0
53142.0,STARLINK-4101,PAYLOAD,2024-06-28 20:07:50,15.08859087,0.0001182,53.2161,72.2204,89.0343,271.0785,8.4382e-05,1.056e-05,0.0,0 STARLINK-4101,1 53142U 22083L   24180.83877703  .00001056  00000-0  84382-4 0  9999,2 53142  53.2161  72.2204 0001182  89.0343 271.0785 15.08859087108427,6917.822,95.436,540.505,538.869,0.0
53142.0,STARLINK-4101,PAYLOAD,2024-06-28 23:18:35,15.08868413,0.0001294,53.2171,71.6237,80.9425,279.1714,0.0001884,2.714e-05,0.0,0 STARLINK-4101,1 53142U 22083L   24180.97124848  .00002714  00000-0  18840-3 0  9996,2 53142  53.2171  71.6237 0001294  80.9425 279.1714 15.08868413107829,6917.794,95.436,540.554,538.763,0.0
53142.0,STARLINK-4101,PAYLOAD,2024-06-28 23:18:36,15.08865603,0.0001451,53.2178,71.6225,82.2109,277.9048,0.00015893,2.244e-05,0.0,0 STARLINK-4101,1 53142U 22083L   24180.97125015  .00002244  00000-0  15893-3 0  9996,2 53142  53.2178  71.6225 0001451  82.2109 277.9048 15.08865603107826,6917.802,95.436,540.671,538.663,0.0
53142.0,STARLINK-4101,PAYLOAD,2024-06-29 19:58:39,15.0882857,0.0001427,53.2167,67.76,101.0667,259.0486,-7.7185e-05,-1.516e-05,0.0,0 STARLINK-4101,1 53142U 22083L   24181.83239831 -.00001516  00000-0 -77185-4 0  9990,2 53142  53.2167  67.7600 0001427 101.0667 259.0486 15.08828570108571,6917.915,95.438,540.768,538.793,0.0
53142.0,STARLINK-4101,PAYLOAD,2024-06-29 23:09:25,15.08824051,0.0001064,53.2163,67.1658,74.056,286.055,-0.00021933,-3.775e-05,0.0,0 STARLINK-4101,1 53142U 22083L   24181.96488195 -.00003775  00000-0 -21933-3 0  9991,2 53142  53.2163  67.1658 0001064  74.0560 286.0550 15.08824051107977,6917.929,95.439,540.53,539.058,0.0
53142.0,STARLINK-4101,PAYLOAD,2024-06-30 19:49:25,15.08851151,0.0001471,53.2175,63.2975,97.9813,262.1346,0.00016052,2.268e-05,0.0,0 STARLINK-4101,1 53142U 22083L   24182.82598947  .00002268  00000-0  16052-3 0  9994,2 53142  53.2175  63.2975 0001471  97.9813 262.1346 15.08851151108729,6917.846,95.437,540.729,538.694,0.0
53142.0,STARLINK-4101,PAYLOAD,2024-06-30 21:24:48,15.08851522,0.0001449,53.2173,63.0002,97.395,262.7207,0.00017645,2.522e-05,0.0,0 STARLINK-4101,1 53142U 22083L   24182.89222932  .00002522  00000-0  17645-3 0  9991,2 53142  53.2173  63.0002 0001449  97.3950 262.7207 15.08851522108114,6917.845,95.437,540.713,538.708,0.0
53142.0,STARLINK-4101,PAYLOAD,2024-07-01 08:32:30,15.08846366,0.0001296,53.2161,60.9201,80.5169,279.597,9.3253e-05,1.197e-05,0.0,0 STARLINK-4101,1 53142U 22083L   24183.35591154  .00001197  00000-0  93253-4 0  9995,2 53142  53.2161  60.9201 0001296  80.5169 279.5970 15.08846366108803,6917.861,95.437,540.622,538.829,0.0
53142.0,STARLINK-4101,PAYLOAD,2024-07-01 19:40:13,15.0883801,0.0001372,53.2179,58.8427,90.5027,269.6122,0.0003093,4.638e-05,0.0,0 STARLINK-4101,1 53142U 22083L   24183.81960097  .00004638  00000-0  30930-3 0  9997,2 53142  53.2179  58.8427 0001372  90.5027 269.6122 15.08838010108870,6917.886,95.438,540.701,538.802,0.0
53142.0,STARLINK-4101,PAYLOAD,2024-07-01 22:50:59,15.0884147,0.0001394,53.2181,58.2491,96.963,263.1521,0.00032176,4.837e-05,0.0,0 STARLINK-4101,1 53142U 22083L   24183.95207907  .00004837  00000-0  32176-3 0  9991,2 53142  53.2181  58.2491 0001394  96.9630 263.1521 15.08841470108272,6917.876,95.437,540.705,538.777,0.0
53142.0,STARLINK-4101,PAYLOAD,2024-07-02 08:23:18,15.08837124,0.00013,53.2173,56.466,97.9597,262.1542,0.00014434,2.01e-05,0.0,0 STARLINK-4101,1 53142U 22083L   24184.34952102  .00002010  00000-0  14434-3 0  9997,2 53142  53.2173  56.4660 0001300  97.9597 262.1542 15.08837124108331,6917.889,95.438,540.654,538.855,0.0
53142.0,STARLINK-4101,PAYLOAD,2024-07-02 21:06:23,15.08842688,0.0001194,53.2171,54.0857,86.8603,273.2526,-2.1457e-05,-6.29e-06,0.0,0 STARLINK-4101,1 53142U 22083L   24184.87944201 -.00000629  00000-0 -21457-4 0  9996,2 53142  53.2171  54.0857 0001194  86.8603 273.2526 15.08842688109031,6917.872,95.437,540.563,538.911,0.0
53142.0,STARLINK-4101,PAYLOAD,2024-07-03 01:52:32,15.08850178,0.0001318,53.2183,53.1881,88.4318,271.6825,2.6588e-05,1.35e-06,0.0,0 STARLINK-4101,1 53142U 22083L   24185.07815527  .00000135  00000-0  26588-4 0  9997,2 53142  53.2183  53.1881 0001318  88.4318 271.6825 15.08850178109060,6917.849,95.437,540.626,538.803,0.0
